{
    "week": 293,
    "satellites": [
        {
            "Name": "BEIDOU-3 M24 (C46)",
            "Line1": "1 44542U 19061A   24320.94197819  .00000060  00000+0  00000+0 0  9999",
            "Line2": "2 44542  54.4255 202.2356 0008968  11.3050 348.8121  1.86229314 35020",
            "SatelliteNumber": "44542",
            "Classification": "U",
            "LaunchYear": "19",
            "LaunchNumber": "061",
            "PieceOfLaunch": "A",
            "EpochYear": "24",
            "EpochDay": 320.94197819,
            "FirstDerivativeMeanMotion": 6e-07,
            "SecondDerivativeMeanMotion": "00000+0",
            "BSTAR": "00000+0",
            "SetNumber": "999",
            "Inclination": 54.4255,
            "RAAN": 202.2356,
            "Eccentricity": 0.0008968,
            "ArgumentOfPerigee": 11.305,
            "MeanAnomaly": 348.8121,
            "MeanMotion": 1.86229314,
            "RevolutionNumber": "3502"
        },
        {
            "Name": "BEIDOU-3 M23 (C45)",
            "Line1": "1 44543U 19061B   24320.80080090  .00000061  00000+0  00000+0 0  9998",
            "Line2": "2 44543  54.4240 202.2090 0005621   6.1998 171.8564  1.86229391 35015",
            "SatelliteNumber": "44543",
            "Classification": "U",
            "LaunchYear": "19",
            "LaunchNumber": "061",
            "PieceOfLaunch": "B",
            "EpochYear": "24",
            "EpochDay": 320.8008009,
            "FirstDerivativeMeanMotion": 6.1e-07,
            "SecondDerivativeMeanMotion": "00000+0",
            "BSTAR": "00000+0",
            "SetNumber": "999",
            "Inclination": 54.424,
            "RAAN": 202.209,
            "Eccentricity": 0.0005621,
            "ArgumentOfPerigee": 6.1998,
            "MeanAnomaly": 171.8564,
            "MeanMotion": 1.86229391,
            "RevolutionNumber": "3501"
        },
        {
            "Name": "BEIDOU-3 IGSO-3 (C40)",
            "Line1": "1 44709U 19073A   24321.31580366 -.00000215  00000+0  00000+0 0  9995",
            "Line2": "2 44709  55.7952 287.1111 0040383 190.9129 168.9193  1.00255842 18642",
            "SatelliteNumber": "44709",
            "Classification": "U",
            "LaunchYear": "19",
            "LaunchNumber": "073",
            "PieceOfLaunch": "A",
            "EpochYear": "24",
            "EpochDay": 321.31580366,
            "FirstDerivativeMeanMotion": -2.15e-06,
            "SecondDerivativeMeanMotion": "00000+0",
            "BSTAR": "00000+0",
            "SetNumber": "999",
            "Inclination": 55.7952,
            "RAAN": 287.1111,
            "Eccentricity": 0.0040383,
            "ArgumentOfPerigee": 190.9129,
            "MeanAnomaly": 168.9193,
            "MeanMotion": 1.00255842,
            "RevolutionNumber": "1864"
        },
        {
            "Name": "BEIDOU-3 M22 (C44)",
            "Line1": "1 44793U 19078A   24320.78633257 -.00000075  00000+0  00000+0 0  9995",
            "Line2": "2 44793  54.4457 320.0908 0005219  10.7212 349.2989  1.86231922 33879",
            "SatelliteNumber": "44793",
            "Classification": "U",
            "LaunchYear": "19",
            "LaunchNumber": "078",
            "PieceOfLaunch": "A",
            "EpochYear": "24",
            "EpochDay": 320.78633257,
            "FirstDerivativeMeanMotion": -7.5e-07,
            "SecondDerivativeMeanMotion": "00000+0",
            "BSTAR": "00000+0",
            "SetNumber": "999",
            "Inclination": 54.4457,
            "RAAN": 320.0908,
            "Eccentricity": 0.0005219,
            "ArgumentOfPerigee": 10.7212,
            "MeanAnomaly": 349.2989,
            "MeanMotion": 1.86231922,
            "RevolutionNumber": "3387"
        },
        {
            "Name": "BEIDOU-3 M21 (C43)",
            "Line1": "1 44794U 19078B   24321.45267578 -.00000077  00000+0  00000+0 0  9992",
            "Line2": "2 44794  54.4188 320.0404 0003478 353.6279   6.3742  1.86232453 33899",
            "SatelliteNumber": "44794",
            "Classification": "U",
            "LaunchYear": "19",
            "LaunchNumber": "078",
            "PieceOfLaunch": "B",
            "EpochYear": "24",
            "EpochDay": 321.45267578,
            "FirstDerivativeMeanMotion": -7.7e-07,
            "SecondDerivativeMeanMotion": "00000+0",
            "BSTAR": "00000+0",
            "SetNumber": "999",
            "Inclination": 54.4188,
            "RAAN": 320.0404,
            "Eccentricity": 0.0003478,
            "ArgumentOfPerigee": 353.6279,
            "MeanAnomaly": 6.3742,
            "MeanMotion": 1.86232453,
            "RevolutionNumber": "3389"
        },
        {
            "Name": "BEIDOU-3 M19 (C41)",
            "Line1": "1 44864U 19090A   24320.63558649 -.00000032  00000+0  00000+0 0  9996",
            "Line2": "2 44864  56.0540  81.9965 0016356 278.7603  85.5404  1.86231291 33454",
            "SatelliteNumber": "44864",
            "Classification": "U",
            "LaunchYear": "19",
            "LaunchNumber": "090",
            "PieceOfLaunch": "A",
            "EpochYear": "24",
            "EpochDay": 320.63558649,
            "FirstDerivativeMeanMotion": -3.2e-07,
            "SecondDerivativeMeanMotion": "00000+0",
            "BSTAR": "00000+0",
            "SetNumber": "999",
            "Inclination": 56.054,
            "RAAN": 81.9965,
            "Eccentricity": 0.0016356,
            "ArgumentOfPerigee": 278.7603,
            "MeanAnomaly": 85.5404,
            "MeanMotion": 1.86231291,
            "RevolutionNumber": "3345"
        },
        {
            "Name": "BEIDOU-3 M20 (C42)",
            "Line1": "1 44865U 19090B   24320.64367177 -.00000032  00000+0  00000+0 0  9992",
            "Line2": "2 44865  56.0558  82.0298 0013707 292.5390 166.8779  1.86231257 33448",
            "SatelliteNumber": "44865",
            "Classification": "U",
            "LaunchYear": "19",
            "LaunchNumber": "090",
            "PieceOfLaunch": "B",
            "EpochYear": "24",
            "EpochDay": 320.64367177,
            "FirstDerivativeMeanMotion": -3.2e-07,
            "SecondDerivativeMeanMotion": "00000+0",
            "BSTAR": "00000+0",
            "SetNumber": "999",
            "Inclination": 56.0558,
            "RAAN": 82.0298,
            "Eccentricity": 0.0013707,
            "ArgumentOfPerigee": 292.539,
            "MeanAnomaly": 166.8779,
            "MeanMotion": 1.86231257,
            "RevolutionNumber": "3344"
        },
        {
            "Name": "BEIDOU-3 G2 (C60)",
            "Line1": "1 45344U 20017A   24321.43869049 -.00000135  00000+0  00000+0 0  9993",
            "Line2": "2 45344   2.5254  34.9212 0004587 213.6942  45.3561  1.00271275 17470",
            "SatelliteNumber": "45344",
            "Classification": "U",
            "LaunchYear": "20",
            "LaunchNumber": "017",
            "PieceOfLaunch": "A",
            "EpochYear": "24",
            "EpochDay": 321.43869049,
            "FirstDerivativeMeanMotion": -1.35e-06,
            "SecondDerivativeMeanMotion": "00000+0",
            "BSTAR": "00000+0",
            "SetNumber": "999",
            "Inclination": 2.5254,
            "RAAN": 34.9212,
            "Eccentricity": 0.0004587,
            "ArgumentOfPerigee": 213.6942,
            "MeanAnomaly": 45.3561,
            "MeanMotion": 1.00271275,
            "RevolutionNumber": "1747"
        },
        {
            "Name": "BEIDOU-3 G3 (C61)",
            "Line1": "1 45807U 20040A   24321.02877028 -.00000345  00000+0  00000+0 0  9997",
            "Line2": "2 45807   1.0744  55.8555 0003579 288.7511 191.7882  1.00264629 16273",
            "SatelliteNumber": "45807",
            "Classification": "U",
            "LaunchYear": "20",
            "LaunchNumber": "040",
            "PieceOfLaunch": "A",
            "EpochYear": "24",
            "EpochDay": 321.02877028,
            "FirstDerivativeMeanMotion": -3.45e-06,
            "SecondDerivativeMeanMotion": "00000+0",
            "BSTAR": "00000+0",
            "SetNumber": "999",
            "Inclination": 1.0744,
            "RAAN": 55.8555,
            "Eccentricity": 0.0003579,
            "ArgumentOfPerigee": 288.7511,
            "MeanAnomaly": 191.7882,
            "MeanMotion": 1.00264629,
            "RevolutionNumber": "1627"
        },
        {
            "Name": "BEIDOU-3 G4 (C62)",
            "Line1": "1 56564U 23066A   24321.75333655 -.00000104  00000+0  00000+0 0  9996",
            "Line2": "2 56564   1.7457 288.9557 0004817 257.9135 300.7166  1.00271119  5615",
            "SatelliteNumber": "56564",
            "Classification": "U",
            "LaunchYear": "23",
            "LaunchNumber": "066",
            "PieceOfLaunch": "A",
            "EpochYear": "24",
            "EpochDay": 321.75333655,
            "FirstDerivativeMeanMotion": -1.04e-06,
            "SecondDerivativeMeanMotion": "00000+0",
            "BSTAR": "00000+0",
            "SetNumber": "999",
            "Inclination": 1.7457,
            "RAAN": 288.9557,
            "Eccentricity": 0.0004817,
            "ArgumentOfPerigee": 257.9135,
            "MeanAnomaly": 300.7166,
            "MeanMotion": 1.00271119,
            "RevolutionNumber": "561"
        }
    ]
}